[{"OBJECT_NAME":"OMNI-L1","OBJECT_ID":"2022-033A","EPOCH":"2026-03-09T18:17:57.515136","MEAN_MOTION":14.82332031,"ECCENTRICITY":0.00041768,"INCLINATION":97.8437,"RA_OF_ASC_NODE":149.8867,"ARG_OF_PERICENTER":239.5238,"MEAN_ANOMALY":120.5563,"EPHEMERIS_TYPE":0,"CLASSIFICATION_TYPE":"U","NORAD_CAT_ID":52157,"ELEMENT_SET_NO":999,"REV_AT_EPOCH":21272,"BSTAR":0.00038598554,"MEAN_MOTION_DOT":3.035e-5,"MEAN_MOTION_DDOT":0},{"OBJECT_NAME":"ORBCOMM FM29","OBJECT_ID":"2008-031C","EPOCH":"2026-03-09T17:26:49.858944","MEAN_MOTION":14.82444679,"ECCENTRICITY":0.00047053,"INCLINATION":48.437,"RA_OF_ASC_NODE":144.646,"ARG_OF_PERICENTER":89.484,"MEAN_ANOMALY":56.1508,"EPHEMERIS_TYPE":0,"CLASSIFICATION_TYPE":"U","NORAD_CAT_ID":33062,"ELEMENT_SET_NO":999,"REV_AT_EPOCH":95352,"BSTAR":0.00031712735,"MEAN_MOTION_DOT":2.354e-5,"MEAN_MOTION_DDOT":0}]
